NORAD_CAT_ID,OBJECT_NAME,OBJECT_TYPE,EPOCH,MEAN_MOTION,ECCENTRICITY,INCLINATION,RA_OF_ASC_NODE,ARG_OF_PERICENTER,MEAN_ANOMALY,BSTAR,MEAN_MOTION_DOT,MEAN_MOTION_DDOT,TLE_LINE0,TLE_LINE1,TLE_LINE2,SEMIMAJOR_AXIS,PERIOD,APOGEE,PERIGEE,DECAYED
51972.0,STARLINK-3671,PAYLOAD,2024-04-08 19:02:22,15.06430797,0.0001313,53.0541,292.8402,72.2713,287.8419,-0.0011863,-0.00017922,0.0,0 STARLINK-3671,1 51972U 22025S   24099.79331925 -.00017922  00000-0 -11863-2 0  9992,2 51972  53.0541 292.8402 0001313  72.2713 287.8419 15.06430797116538,6925.254,95.59,548.028,546.21,0.0
51972.0,STARLINK-3671,PAYLOAD,2024-04-08 22:13:29,15.06394756,0.0001084,53.054,292.2445,78.6928,281.4182,0.000353,4.98e-05,0.0,0 STARLINK-3671,1 51972U 22025S   24099.92604144  .00004980  00000-0  35300-3 0  9994,2 51972  53.0540 292.2445 0001084  78.6928 281.4182 15.06394756115452,6925.365,95.592,547.98,546.479,0.0
51972.0,STARLINK-3671,PAYLOAD,2024-04-09 12:33:21,15.06398173,0.000118,53.0537,289.5651,75.2353,284.8767,0.00035547,5.017e-05,0.0,0 STARLINK-3671,1 51972U 22025S   24100.52316581  .00005017  00000-0  35547-3 0  9993,2 51972  53.0537 289.5651 0001180  75.2353 284.8767 15.06398173115541,6925.354,95.592,548.036,546.402,0.0
51972.0,STARLINK-3671,PAYLOAD,2024-04-09 18:55:30,15.06402462,0.0001174,53.0534,288.3735,75.4211,284.6908,0.00039423,5.596e-05,0.0,0 STARLINK-3671,1 51972U 22025S   24100.78855196  .00005596  00000-0  39423-3 0  9990,2 51972  53.0534 288.3735 0001174  75.4211 284.6908 15.06402462115582,6925.341,95.592,548.019,546.393,0.0
51972.0,STARLINK-3671,PAYLOAD,2024-04-10 12:26:26,15.0639913,0.0001291,53.0523,285.0969,75.3904,284.7228,0.00011671,1.457e-05,0.0,0 STARLINK-3671,1 51972U 22025S   24101.51836762  .00001457  00000-0  11671-3 0  9997,2 51972  53.0523 285.0969 0001291  75.3904 284.7228 15.06399130116798,6925.351,95.592,548.11,546.322,0.0
51972.0,STARLINK-3671,PAYLOAD,2024-04-10 18:48:36,15.06398663,0.0001239,53.0542,283.9054,78.1882,281.9246,8.9845e-05,1.057e-05,0.0,0 STARLINK-3671,1 51972U 22025S   24101.78375502  .00001057  00000-0  89845-4 0  9991,2 51972  53.0542 283.9054 0001239  78.1882 281.9246 15.06398663115731,6925.353,95.592,548.076,546.36,0.0
51972.0,STARLINK-3671,PAYLOAD,2024-04-11 12:19:32,15.06396799,0.0001228,53.0541,280.6301,75.8681,284.2445,3.2949e-05,2.09e-06,0.0,0 STARLINK-3671,1 51972U 22025S   24102.51357226  .00000209  00000-0  32949-4 0  9997,2 51972  53.0541 280.6301 0001228  75.8681 284.2445 15.06396799115845,6925.358,95.592,548.074,546.373,0.0
51972.0,STARLINK-3671,PAYLOAD,2024-04-11 18:41:42,15.06392346,0.0001194,53.0547,279.4367,88.5274,271.5852,-4.0057e-05,-8.78e-06,0.0,0 STARLINK-3671,1 51972U 22025S   24102.77896180 -.00000878  00000-0 -40057-4 0  9995,2 51972  53.0547 279.4367 0001194  88.5274 271.5852 15.06392346116981,6925.372,95.593,548.064,546.41,0.0
51972.0,STARLINK-3671,PAYLOAD,2024-04-12 04:14:55,15.06432705,0.0001026,53.0574,277.6508,100.2467,259.8638,-0.0005332,-8.221e-05,0.0,0 STARLINK-3671,1 51972U 22025S   24103.17702751 -.00008221  00000-0 -53320-3 0  9996,2 51972  53.0574 277.6508 0001026 100.2467 259.8638 15.06432705117041,6925.248,95.59,547.824,546.403,0.0
51972.0,STARLINK-3671,PAYLOAD,2024-04-12 12:12:37,15.06403383,9.69e-05,53.0545,276.1604,88.5494,271.5606,0.00016985,2.25e-05,0.0,0 STARLINK-3671,1 51972U 22025S   24103.50877008  .00002250  00000-0  16985-3 0  9991,2 51972  53.0545 276.1604 0000969  88.5494 271.5606 15.06403383117094,6925.338,95.592,547.874,546.532,0.0
51972.0,STARLINK-3671,PAYLOAD,2024-04-12 15:23:42,15.06407214,9.86e-05,53.0549,275.5649,88.912,271.1982,0.00020021,2.703e-05,0.0,0 STARLINK-3671,1 51972U 22025S   24103.64146079  .00002703  00000-0  20021-3 0  9992,2 51972  53.0549 275.5649 0000986  88.9120 271.1982 15.06407214116010,6925.326,95.592,547.874,546.509,0.0
51972.0,STARLINK-3671,PAYLOAD,2024-04-13 18:27:53,15.06398412,0.0001064,53.055,270.4998,79.9589,280.152,0.0001231,1.553e-05,0.0,0 STARLINK-3671,1 51972U 22025S   24104.76936487  .00001553  00000-0  12310-3 0  9990,2 51972  53.0550 270.4998 0001064  79.9589 280.1520 15.06398412116185,6925.353,95.592,547.955,546.482,0.0
51972.0,STARLINK-3671,PAYLOAD,2024-04-14 16:45:25,15.06417283,0.0001319,53.0533,266.3329,85.6659,274.448,-0.00019257,-3.15e-05,0.0,0 STARLINK-3671,1 51972U 22025S   24105.69820957 -.00003150  00000-0 -19257-3 0  9991,2 51972  53.0533 266.3329 0001319  85.6659 274.4480 15.06417283117420,6925.296,95.591,548.074,546.247,0.0
51972.0,STARLINK-3671,PAYLOAD,2024-04-15 10:16:21,15.06404954,0.0001235,53.0533,263.0574,69.9004,290.2118,0.00021269,2.888e-05,0.0,0 STARLINK-3671,1 51972U 22025S   24106.42803198  .00002888  00000-0  21269-3 0  9992,2 51972  53.0533 263.0574 0001235  69.9004 290.2118 15.06404954117539,6925.333,95.592,548.054,546.343,0.0
51972.0,STARLINK-3671,PAYLOAD,2024-04-16 13:20:32,15.06399094,0.0001437,53.0538,257.9951,65.264,294.8498,7.6375e-05,8.56e-06,0.0,0 STARLINK-3671,1 51972U 22025S   24107.55593033  .00000856  00000-0  76375-4 0  9993,2 51972  53.0538 257.9951 0001437  65.2640 294.8498 15.06399094117702,6925.351,95.592,548.212,546.221,0.0
51972.0,STARLINK-3671,PAYLOAD,2024-04-16 16:31:36,15.06412922,0.0001073,53.0547,257.3966,77.5939,282.517,0.0001318,1.683e-05,0.0,0 STARLINK-3671,1 51972U 22025S   24107.68861271  .00001683  00000-0  13180-3 0  9992,2 51972  53.0547 257.3966 0001073  77.5939 282.5170 15.06412922117724,6925.309,95.591,547.917,546.431,0.0
51972.0,STARLINK-3671,PAYLOAD,2024-04-17 13:13:38,15.06393445,0.0001209,53.0532,253.5265,67.1932,292.9184,-1.4912e-05,-5.03e-06,0.0,0 STARLINK-3671,1 51972U 22025S   24108.55113491 -.00000503  00000-0 -14912-4 0  9990,2 51972  53.0532 253.5265 0001209  67.1932 292.9184 15.06393445117859,6925.369,95.593,548.071,546.396,0.0
51972.0,STARLINK-3671,PAYLOAD,2024-04-17 14:49:10,15.06396165,0.0001379,53.0543,253.2287,66.4976,293.6157,9.9736e-06,-1.33e-06,0.0,0 STARLINK-3671,1 51972U 22025S   24108.61748208 -.00000133  00000-0  99736-5 0  9993,2 51972  53.0543 253.2287 0001379  66.4976 293.6157 15.06396165116769,6925.36,95.592,548.18,546.27,0.0
51972.0,STARLINK-3671,PAYLOAD,2024-04-17 16:24:42,15.06399326,0.0001345,53.0554,252.9283,95.9138,264.2004,6.3767e-05,6.68e-06,0.0,0 STARLINK-3671,1 51972U 22025S   24108.68382461  .00000668  00000-0  63767-4 0  9991,2 51972  53.0554 252.9283 0001345  95.9138 264.2004 15.06399326117873,6925.351,95.592,548.147,546.284,0.0
51972.0,STARLINK-3671,PAYLOAD,2024-04-18 13:06:44,15.06392211,0.0001398,53.0553,249.0584,100.8437,259.2709,4.859e-05,4.42e-06,0.0,0 STARLINK-3671,1 51972U 22025S   24109.54634294  .00000442  00000-0  48590-4 0  9998,2 51972  53.0553 249.0584 0001398 100.8437 259.2709 15.06392211118007,6925.372,95.593,548.206,546.269,0.0
51972.0,STARLINK-3671,PAYLOAD,2024-04-19 14:35:21,15.0640183,0.0001352,53.0556,244.2931,91.1387,268.9757,0.00020937,2.839e-05,0.0,0 STARLINK-3671,1 51972U 22025S   24110.60788728  .00002839  00000-0  20937-3 0  9995,2 51972  53.0556 244.2931 0001352  91.1387 268.9757 15.06401830117062,6925.343,95.592,548.144,546.272,0.0
51972.0,STARLINK-3671,PAYLOAD,2024-04-19 16:10:53,15.06407747,0.0001364,53.0548,243.9932,83.8304,276.284,0.00030918,4.328e-05,0.0,0 STARLINK-3671,1 51972U 22025S   24110.67423284  .00004328  00000-0  30918-3 0  9990,2 51972  53.0548 243.9932 0001364  83.8304 276.2840 15.06407747118171,6925.325,95.592,548.134,546.245,0.0
51972.0,STARLINK-3671,PAYLOAD,2024-04-20 12:52:55,15.06388302,0.00015,53.0561,240.1245,81.4434,278.6725,-4.2573e-05,-9.15e-06,0.0,0 STARLINK-3671,1 51972U 22025S   24111.53675756 -.00000915  00000-0 -42573-4 0  9990,2 51972  53.0561 240.1245 0001500  81.4434 278.6725 15.06388302118300,6925.384,95.593,548.288,546.211,0.0
51972.0,STARLINK-3671,PAYLOAD,2024-04-20 14:28:28,15.06390504,0.0001731,53.0548,239.8254,76.2731,283.845,1.1649e-07,-2.8e-06,0.0,0 STARLINK-3671,1 51972U 22025S   24111.60310382 -.00000280  00000-0  11649-6 0  9995,2 51972  53.0548 239.8254 0001731  76.2731 283.8450 15.06390504117217,6925.378,95.593,548.441,546.044,0.0
51972.0,STARLINK-3671,PAYLOAD,2024-04-20 17:39:32,15.0639406,0.0001831,53.0554,239.2294,76.1756,283.9437,8.8041e-05,1.03e-05,0.0,0 STARLINK-3671,1 51972U 22025S   24111.73579551  .00001030  00000-0  88041-4 0  9995,2 51972  53.0554 239.2294 0001831  76.1756 283.9437 15.06394060117238,6925.367,95.593,548.5,545.964,0.0
51972.0,STARLINK-3671,PAYLOAD,2024-04-21 14:21:33,15.06397832,0.0002232,53.0553,235.3566,115.672,244.45,3.7501e-06,-2.26e-06,0.0,0 STARLINK-3671,1 51972U 22025S   24112.59830572 -.00000226  00000-0  37501-5 0  9996,2 51972  53.0553 235.3566 0002232 115.6720 244.4500 15.06397832117369,6925.355,95.592,548.766,545.674,0.0
51972.0,STARLINK-3671,PAYLOAD,2024-04-21 17:32:38,15.06414401,0.0001611,53.0552,234.7575,68.471,291.645,0.00055937,8.063e-05,0.0,0 STARLINK-3671,1 51972U 22025S   24112.73099546  .00008063  00000-0  55937-3 0  9997,2 51972  53.0552 234.7575 0001611  68.4710 291.6450 15.06414401118489,6925.304,95.591,548.285,546.054,0.0
51972.0,STARLINK-3671,PAYLOAD,2024-04-22 07:52:29,15.06403099,0.0001298,53.0547,232.0743,118.1295,241.9825,0.00014506,1.88e-05,0.0,0 STARLINK-3671,1 51972U 22025S   24113.32811692  .00001880  00000-0  14506-3 0  9994,2 51972  53.0547 232.0743 0001298 118.1295 241.9825 15.06403099118578,6925.339,95.592,548.103,546.305,0.0
51972.0,STARLINK-3671,PAYLOAD,2024-04-22 17:25:42,15.06432864,0.0001554,53.0557,230.2888,106.6224,253.4936,0.00073606,0.00010709,0.0,0 STARLINK-3671,1 51972U 22025S   24113.72618596  .00010709  00000-0  73606-3 0  9992,2 51972  53.0557 230.2888 0001554 106.6224 253.4936 15.06432864118638,6925.248,95.59,548.189,546.037,0.0
51972.0,STARLINK-3671,PAYLOAD,2024-04-23 12:32:12,15.06386109,0.0001643,53.0557,226.7166,93.9138,266.2039,-0.00035582,-5.575e-05,0.0,0 STARLINK-3671,1 51972U 22025S   24114.52236878 -.00005575  00000-0 -35582-3 0  9998,2 51972  53.0557 226.7166 0001643  93.9138 266.2039 15.06386109118757,6925.391,95.593,548.394,546.118,0.0
